<?xml version="1.0" encoding="UTF-8"?>
<ndm xmlns:xsi="http://www.w3.org/2001/XMLSchema-instance" xsi:noNamespaceSchemaLocation="https://sanaregistry.org/r/ndmxml_unqualified/ndmxml-2.0.0-master-2.0.xsd">
<omm id="CCSDS_OMM_VERS" version="2.0">
<header><CREATION_DATE/><ORIGINATOR/></header><body><segment><metadata><OBJECT_NAME>KUIPER-00008</OBJECT_NAME><OBJECT_ID>2025-088A</OBJECT_ID><CENTER_NAME>EARTH</CENTER_NAME><REF_FRAME>TEME</REF_FRAME><TIME_SYSTEM>UTC</TIME_SYSTEM><MEAN_ELEMENT_THEORY>SGP4</MEAN_ELEMENT_THEORY></metadata><data><meanElements><EPOCH>2025-09-20T22:37:16.834080</EPOCH><MEAN_MOTION>14.99181803</MEAN_MOTION><ECCENTRICITY>.0010457</ECCENTRICITY><INCLINATION>51.8902</INCLINATION><RA_OF_ASC_NODE>140.9443</RA_OF_ASC_NODE><ARG_OF_PERICENTER>245.4519</ARG_OF_PERICENTER><MEAN_ANOMALY>114.5362</MEAN_ANOMALY></meanElements><tleParameters><EPHEMERIS_TYPE>0</EPHEMERIS_TYPE><CLASSIFICATION_TYPE>U</CLASSIFICATION_TYPE><NORAD_CAT_ID>63724</NORAD_CAT_ID><ELEMENT_SET_NO>999</ELEMENT_SET_NO><REV_AT_EPOCH>2259</REV_AT_EPOCH><BSTAR>.56795973E-3</BSTAR><MEAN_MOTION_DOT>.6738E-4</MEAN_MOTION_DOT><MEAN_MOTION_DDOT>0</MEAN_MOTION_DDOT></tleParameters></data></segment></body></omm>
<omm id="CCSDS_OMM_VERS" version="2.0">
<header><CREATION_DATE/><ORIGINATOR/></header><body><segment><metadata><OBJECT_NAME>KUIPER-00009</OBJECT_NAME><OBJECT_ID>2025-088B</OBJECT_ID><CENTER_NAME>EARTH</CENTER_NAME><REF_FRAME>TEME</REF_FRAME><TIME_SYSTEM>UTC</TIME_SYSTEM><MEAN_ELEMENT_THEORY>SGP4</MEAN_ELEMENT_THEORY></metadata><data><meanElements><EPOCH>2025-09-20T22:41:20.842368</EPOCH><MEAN_MOTION>14.79946037</MEAN_MOTION><ECCENTRICITY>.00117507</ECCENTRICITY><INCLINATION>51.9007</INCLINATION><RA_OF_ASC_NODE>137.2126</RA_OF_ASC_NODE><ARG_OF_PERICENTER>259.0486</ARG_OF_PERICENTER><MEAN_ANOMALY>100.9154</MEAN_ANOMALY></meanElements><tleParameters><EPHEMERIS_TYPE>0</EPHEMERIS_TYPE><CLASSIFICATION_TYPE>U</CLASSIFICATION_TYPE><NORAD_CAT_ID>63725</NORAD_CAT_ID><ELEMENT_SET_NO>999</ELEMENT_SET_NO><REV_AT_EPOCH>2264</REV_AT_EPOCH><BSTAR>.46412206E-3</BSTAR><MEAN_MOTION_DOT>.3321E-4</MEAN_MOTION_DOT><MEAN_MOTION_DDOT>0</MEAN_MOTION_DDOT></tleParameters></data></segment></body></omm>
<omm id="CCSDS_OMM_VERS" version="2.0">
<header><CREATION_DATE/><ORIGINATOR/></header><body><segment><metadata><OBJECT_NAME>KUIPER-00010</OBJECT_NAME><OBJECT_ID>2025-088C</OBJECT_ID><CENTER_NAME>EARTH</CENTER_NAME><REF_FRAME>TEME</REF_FRAME><TIME_SYSTEM>UTC</TIME_SYSTEM><MEAN_ELEMENT_THEORY>SGP4</MEAN_ELEMENT_THEORY></metadata><data><meanElements><EPOCH>2025-09-20T22:00:03.000096</EPOCH><MEAN_MOTION>15.22597354</MEAN_MOTION><ECCENTRICITY>.00099951</ECCENTRICITY><INCLINATION>51.8734</INCLINATION><RA_OF_ASC_NODE>119.4096</RA_OF_ASC_NODE><ARG_OF_PERICENTER>281.9550</ARG_OF_PERICENTER><MEAN_ANOMALY>274.6005</MEAN_ANOMALY></meanElements><tleParameters><EPHEMERIS_TYPE>0</EPHEMERIS_TYPE><CLASSIFICATION_TYPE>U</CLASSIFICATION_TYPE><NORAD_CAT_ID>63726</NORAD_CAT_ID><ELEMENT_SET_NO>999</ELEMENT_SET_NO><REV_AT_EPOCH>311</REV_AT_EPOCH><BSTAR>-.62866571E-1</BSTAR><MEAN_MOTION_DOT>-.1350319E-1</MEAN_MOTION_DOT><MEAN_MOTION_DDOT>0</MEAN_MOTION_DDOT></tleParameters></data></segment></body></omm>
<omm id="CCSDS_OMM_VERS" version="2.0">
<header><CREATION_DATE/><ORIGINATOR/></header><body><segment><metadata><OBJECT_NAME>KUIPER-00011</OBJECT_NAME><OBJECT_ID>2025-088D</OBJECT_ID><CENTER_NAME>EARTH</CENTER_NAME><REF_FRAME>TEME</REF_FRAME><TIME_SYSTEM>UTC</TIME_SYSTEM><MEAN_ELEMENT_THEORY>SGP4</MEAN_ELEMENT_THEORY></metadata><data><meanElements><EPOCH>2025-09-20T22:00:03.000096</EPOCH><MEAN_MOTION>15.00970430</MEAN_MOTION><ECCENTRICITY>.00107627</ECCENTRICITY><INCLINATION>51.8801</INCLINATION><RA_OF_ASC_NODE>122.8131</RA_OF_ASC_NODE><ARG_OF_PERICENTER>272.5494</ARG_OF_PERICENTER><MEAN_ANOMALY>251.8719</MEAN_ANOMALY></meanElements><tleParameters><EPHEMERIS_TYPE>0</EPHEMERIS_TYPE><CLASSIFICATION_TYPE>U</CLASSIFICATION_TYPE><NORAD_CAT_ID>63727</NORAD_CAT_ID><ELEMENT_SET_NO>999</ELEMENT_SET_NO><REV_AT_EPOCH>424</REV_AT_EPOCH><BSTAR>-.34568874E-2</BSTAR><MEAN_MOTION_DOT>-.44633E-3</MEAN_MOTION_DOT><MEAN_MOTION_DDOT>0</MEAN_MOTION_DDOT></tleParameters></data></segment></body></omm>
<omm id="CCSDS_OMM_VERS" version="2.0">
<header><CREATION_DATE/><ORIGINATOR/></header><body><segment><metadata><OBJECT_NAME>KUIPER-00012</OBJECT_NAME><OBJECT_ID>2025-088E</OBJECT_ID><CENTER_NAME>EARTH</CENTER_NAME><REF_FRAME>TEME</REF_FRAME><TIME_SYSTEM>UTC</TIME_SYSTEM><MEAN_ELEMENT_THEORY>SGP4</MEAN_ELEMENT_THEORY></metadata><data><meanElements><EPOCH>2025-09-20T22:00:03.000096</EPOCH><MEAN_MOTION>15.20546300</MEAN_MOTION><ECCENTRICITY>.00095216</ECCENTRICITY><INCLINATION>51.8718</INCLINATION><RA_OF_ASC_NODE>119.9776</RA_OF_ASC_NODE><ARG_OF_PERICENTER>262.6705</ARG_OF_PERICENTER><MEAN_ANOMALY>294.3662</MEAN_ANOMALY></meanElements><tleParameters><EPHEMERIS_TYPE>0</EPHEMERIS_TYPE><CLASSIFICATION_TYPE>U</CLASSIFICATION_TYPE><NORAD_CAT_ID>63728</NORAD_CAT_ID><ELEMENT_SET_NO>999</ELEMENT_SET_NO><REV_AT_EPOCH>502</REV_AT_EPOCH><BSTAR>.91203049E-3</BSTAR><MEAN_MOTION_DOT>.19976E-3</MEAN_MOTION_DOT><MEAN_MOTION_DDOT>0</MEAN_MOTION_DDOT></tleParameters></data></segment></body></omm>
<omm id="CCSDS_OMM_VERS" version="2.0">
<header><CREATION_DATE/><ORIGINATOR/></header><body><segment><metadata><OBJECT_NAME>KUIPER-00013</OBJECT_NAME><OBJECT_ID>2025-088F</OBJECT_ID><CENTER_NAME>EARTH</CENTER_NAME><REF_FRAME>TEME</REF_FRAME><TIME_SYSTEM>UTC</TIME_SYSTEM><MEAN_ELEMENT_THEORY>SGP4</MEAN_ELEMENT_THEORY></metadata><data><meanElements><EPOCH>2025-09-20T22:40:04.080288</EPOCH><MEAN_MOTION>14.79867587</MEAN_MOTION><ECCENTRICITY>.00080191</ECCENTRICITY><INCLINATION>51.9013</INCLINATION><RA_OF_ASC_NODE>138.6842</RA_OF_ASC_NODE><ARG_OF_PERICENTER>183.1127</ARG_OF_PERICENTER><MEAN_ANOMALY>176.9786</MEAN_ANOMALY></meanElements><tleParameters><EPHEMERIS_TYPE>0</EPHEMERIS_TYPE><CLASSIFICATION_TYPE>U</CLASSIFICATION_TYPE><NORAD_CAT_ID>63729</NORAD_CAT_ID><ELEMENT_SET_NO>999</ELEMENT_SET_NO><REV_AT_EPOCH>2243</REV_AT_EPOCH><BSTAR>.6531257E-3</BSTAR><MEAN_MOTION_DOT>.4754E-4</MEAN_MOTION_DOT><MEAN_MOTION_DDOT>0</MEAN_MOTION_DDOT></tleParameters></data></segment></body></omm>
<omm id="CCSDS_OMM_VERS" version="2.0">
<header><CREATION_DATE/><ORIGINATOR/></header><body><segment><metadata><OBJECT_NAME>KUIPER-00014</OBJECT_NAME><OBJECT_ID>2025-088G</OBJECT_ID><CENTER_NAME>EARTH</CENTER_NAME><REF_FRAME>TEME</REF_FRAME><TIME_SYSTEM>UTC</TIME_SYSTEM><MEAN_ELEMENT_THEORY>SGP4</MEAN_ELEMENT_THEORY></metadata><data><meanElements><EPOCH>2025-09-20T22:37:21.093600</EPOCH><MEAN_MOTION>14.79944940</MEAN_MOTION><ECCENTRICITY>.00076567</ECCENTRICITY><INCLINATION>51.9023</INCLINATION><RA_OF_ASC_NODE>139.6564</RA_OF_ASC_NODE><ARG_OF_PERICENTER>252.5105</ARG_OF_PERICENTER><MEAN_ANOMALY>107.5021</MEAN_ANOMALY></meanElements><tleParameters><EPHEMERIS_TYPE>0</EPHEMERIS_TYPE><CLASSIFICATION_TYPE>U</CLASSIFICATION_TYPE><NORAD_CAT_ID>63730</NORAD_CAT_ID><ELEMENT_SET_NO>999</ELEMENT_SET_NO><REV_AT_EPOCH>2223</REV_AT_EPOCH><BSTAR>.15721738E-3</BSTAR><MEAN_MOTION_DOT>.977E-5</MEAN_MOTION_DOT><MEAN_MOTION_DDOT>0</MEAN_MOTION_DDOT></tleParameters></data></segment></body></omm>
<omm id="CCSDS_OMM_VERS" version="2.0">
<header><CREATION_DATE/><ORIGINATOR/></header><body><segment><metadata><OBJECT_NAME>KUIPER-00015</OBJECT_NAME><OBJECT_ID>2025-088H</OBJECT_ID><CENTER_NAME>EARTH</CENTER_NAME><REF_FRAME>TEME</REF_FRAME><TIME_SYSTEM>UTC</TIME_SYSTEM><MEAN_ELEMENT_THEORY>SGP4</MEAN_ELEMENT_THEORY></metadata><data><meanElements><EPOCH>2025-09-20T22:36:48.345408</EPOCH><MEAN_MOTION>14.81369416</MEAN_MOTION><ECCENTRICITY>.00099319</ECCENTRICITY><INCLINATION>51.8982</INCLINATION><RA_OF_ASC_NODE>151.6476</RA_OF_ASC_NODE><ARG_OF_PERICENTER>234.1639</ARG_OF_PERICENTER><MEAN_ANOMALY>125.8402</MEAN_ANOMALY></meanElements><tleParameters><EPHEMERIS_TYPE>0</EPHEMERIS_TYPE><CLASSIFICATION_TYPE>U</CLASSIFICATION_TYPE><NORAD_CAT_ID>63731</NORAD_CAT_ID><ELEMENT_SET_NO>999</ELEMENT_SET_NO><REV_AT_EPOCH>2252</REV_AT_EPOCH><BSTAR>.67367252E-3</BSTAR><MEAN_MOTION_DOT>.5097E-4</MEAN_MOTION_DOT><MEAN_MOTION_DDOT>0</MEAN_MOTION_DDOT></tleParameters></data></segment></body></omm>

</ndm>
