KUIPER-00008            
1 63724U 25088A   25263.94255595  .00006738  00000+0  56796-3 0  9996
2 63724  51.8902 140.9443 0010457 245.4519 114.5362 14.99181803 22595
KUIPER-00009            
1 63725U 25088B   25263.94538012  .00003321  00000+0  46412-3 0  9994
2 63725  51.9007 137.2126 0011750 259.0486 100.9154 14.79946037 22641
KUIPER-00010            
1 63726U 25088C   25263.91670139 -.01350319  00000+0 -62867-1 0  9994
2 63726  51.8734 119.4096 0009995 281.9550 274.6005 15.22597354  3118
KUIPER-00011            
1 63727U 25088D   25263.91670139 -.00044633  00000+0 -34569-2 0  9992
2 63727  51.8801 122.8131 0010762 272.5494 251.8719 15.00970430  4249
KUIPER-00012            
1 63728U 25088E   25263.91670139  .00019976  00000+0  91203-3 0  9992
2 63728  51.8718 119.9776 0009521 262.6705 294.3662 15.20546300  5028
KUIPER-00013            
1 63729U 25088F   25263.94449167  .00004754  00000+0  65313-3 0  9992
2 63729  51.9013 138.6842 0008019 183.1127 176.9786 14.79867587 22438
KUIPER-00014            
1 63730U 25088G   25263.94260525  .00000977  00000+0  15722-3 0  9995
2 63730  51.9023 139.6564 0007656 252.5105 107.5021 14.79944940 22235
KUIPER-00015            
1 63731U 25088H   25263.94222622  .00005097  00000+0  67367-3 0  9992
2 63731  51.8982 151.6476 0009931 234.1639 125.8402 14.81369416 22521
